ONEWEB-0102             
1 47258U 20100A   26024.42691222  .00000453  00000+0  12234-2 0  9996
2 47258  87.8928  19.2234 0001540  85.4290 274.7014 13.12444078245874
ONEWEB-0109             
1 47259U 20100B   26024.43537338  .00001272  00000+0  34986-2 0  9993
2 47259  87.8932  19.1926 0001683  93.5649 266.5671 13.12448931245705
ONEWEB-0110             
1 47260U 20100C   26024.46247480 -.00000384  00000+0 -11019-2 0  9991
2 47260  87.8935  19.1722 0001542  82.1254 278.0049 13.12443849245872
ONEWEB-0111             
1 47261U 20100D   26024.41672296  .00000239  00000+0  62818-3 0  9995
2 47261  87.8941  19.1996 0001790  82.2319 277.9013 13.12445746245700
ONEWEB-0114             
1 47262U 20100E   26024.44722851  .00000160  00000+0  40810-3 0  9993
2 47262  87.8936  19.1889 0001874  98.4360 261.6981 13.12443428245668
ONEWEB-0117             
1 47263U 20100F   26024.43877190  .00000410  00000+0  11036-2 0  9995
2 47263  87.8937  19.1861 0001748  87.7379 272.3949 13.12443016245678
ONEWEB-0118             
1 47264U 20100G   26024.39641771 -.00000314  00000+0 -90937-3 0  9998
2 47264  87.8938  19.1955 0002081  93.6340 266.5026 13.12444155245866
ONEWEB-0119             
1 47265U 20100H   26024.42182436  .00000397  00000+0  10688-2 0  9994
2 47265  87.8930  19.2205 0001804  87.6844 272.4491 13.12445450245841
